OBJECT_NAME,OBJECT_ID,EPOCH,MEAN_MOTION,ECCENTRICITY,INCLINATION,RA_OF_ASC_NODE,ARG_OF_PERICENTER,MEAN_ANOMALY,EPHEMERIS_TYPE,CLASSIFICATION_TYPE,NORAD_CAT_ID,ELEMENT_SET_NO,REV_AT_EPOCH,BSTAR,MEAN_MOTION_DOT,MEAN_MOTION_DDOT
STARLINK-34083,2025-095U,2026-06-07T07:56:57.431328,15.27598441,.0001885,42.9943,30.2904,279.5007,80.5631,0,U,63908,999,6148,.7086E-3,.19299E-3,0
STARLINK-34066,2025-095V,2026-06-05T19:31:01.201440,15.27576656,.00010012,42.9975,38.6728,233.1554,126.9206,0,U,63909,999,6125,.64853515E-3,.17625E-3,0
STARLINK-34071,2025-095W,2026-06-05T03:58:43.048992,15.27619081,.00013794,42.9992,42.4143,280.6836,79.3861,0,U,63910,999,6115,.12063238E-2,.33122E-3,0
STARLINK-34038,2025-095X,2026-06-06T18:52:15.852576,15.27563105,.00015312,43.0027,33.0752,295.0687,65.0006,0,U,63911,999,6140,.94998061E-3,.25958E-3,0
STARLINK-34031,2025-095Y,2026-06-04T13:36:29.530080,15.27668566,.00023048,43.0012,45.6597,260.0131,100.0461,0,U,63912,999,6106,.10431791E-2,.28634E-3,0
STARLINK-34070,2025-095Z,2026-06-07T08:54:06.636096,15.27595363,.0001085,43.0019,29.7204,286.0723,74.0009,0,U,63913,999,6149,.7387E-3,.2013E-3,0
STARLINK-34068,2025-095AA,2026-06-07T08:39:17.174016,15.27593481,.0004872,43.0034,29.6427,268.3717,91.6577,0,U,63914,999,6149,.64142E-3,.17441E-3,0
STARLINK-34076,2025-095AB,2026-06-07T08:48:34.007328,15.27565546,.0000394,43.0057,29.6902,256.2377,103.8431,0,U,63915,999,6149,.83863E-3,.22876E-3,0
STARLINK-33910,2025-095AC,2026-06-06T08:44:44.611872,15.27645233,.00012221,43.0015,35.0654,286.4140,73.6577,0,U,63916,999,6134,.12249157E-2,.33666E-3,0
STARLINK-34075,2025-095AD,2026-06-07T08:33:46.142784,15.27629229,.0001861,43.0007,29.6077,14.5203,345.5702,0,U,63917,999,6149,.66826E-3,.182E-3,0
YAOGAN-40 02A,2025-096A,2026-06-07T12:06:47.071872,14.12446117,.0002621,85.9957,192.3064,97.0549,263.0932,0,U,63918,999,5520,.58575E-4,.127E-5,0
YAOGAN-40 02B,2025-096B,2026-06-07T12:07:00.210720,14.12445729,.0002177,85.9954,192.2769,100.8624,259.2804,0,U,63919,999,5520,.81966E-4,.17E-5,0
YAOGAN-40 02C,2025-096C,2026-06-07T12:06:53.447328,14.12445384,.0002523,85.9959,191.5529,94.5426,265.6045,0,U,63920,999,7404,.82403E-4,.171E-5,0
TJS-19,2025-097A,2026-06-07T18:37:44.513760,1.00269548,.0002038,3.3030,317.2737,234.6960,124.9234,0,U,63924,999,404,0,-.264E-5,0
STARLINK-34012,2025-098A,2026-06-06T23:25:26.863104,14.98351658,.0003373,70.0015,49.4616,267.3994,92.6779,0,U,63926,999,5996,.10465E-2,.12423E-3,0
STARLINK-33956,2025-098B,2026-06-07T09:32:14.494272,14.98337429,.0002849,70.0014,48.1166,271.1456,88.9377,0,U,63927,999,6000,.20659E-3,.2373E-4,0
STARLINK-33997,2025-098C,2026-06-07T02:55:44.991264,14.98342837,.000312,70.0016,49.1602,270.4208,89.6593,0,U,63928,999,5996,.83996E-3,.9947E-4,0
STARLINK-33989,2025-098D,2026-06-07T10:20:34.429920,14.98332599,.0002826,70.0012,48.2371,268.0350,92.0485,0,U,63929,999,6001,.19341E-3,.2216E-4,0
STARLINK-33980,2025-098E,2026-06-06T10:48:22.282560,14.98336452,.00028299,70.0017,50.8364,270.3416,89.7419,0,U,63930,999,5986,.2531903E-3,.293E-4,0
STARLINK-33994,2025-098F,2026-06-07T10:14:33.530208,14.98323662,.000284,70.0012,48.2228,268.7078,91.3756,0,U,63931,999,6001,.55725E-4,.572E-5,0
STARLINK-33971,2025-098G,2026-06-06T23:31:40.509408,14.98334225,.0002939,70.0013,49.4758,269.5745,90.5078,0,U,63932,999,5994,.23973E-3,.2769E-4,0
STARLINK-33877,2025-098H,2026-06-07T03:13:43.220928,14.98328794,.0002628,70.0007,48.7992,256.5599,103.5267,0,U,63933,999,5997,.3171E-3,.3692E-4,0
STARLINK-33895,2025-098J,2026-06-07T09:50:31.008768,14.98333651,.0002608,70.0021,48.1625,268.0393,92.0467,0,U,63934,999,6001,.20084E-3,.2304E-4,0
STARLINK-34005,2025-098K,2026-06-06T10:48:36.462528,14.98340155,.00029807,70.0013,50.8277,266.3807,93.7011,0,U,63935,999,5985,.34575993E-3,.4036E-4,0
STARLINK-34027,2025-098L,2026-06-07T09:26:28.420800,14.98330604,.0002985,70.0018,48.1011,269.0477,91.0340,0,U,63936,999,5999,.4881E-3,.5736E-4,0
STARLINK-34035,2025-098M,2026-06-07T10:08:32.826624,14.98341547,.0003014,70.0017,48.2056,264.7379,95.3437,0,U,63937,999,5999,.14756E-3,.1669E-4,0
STARLINK-33988,2025-098N,2026-06-07T10:26:20.550912,14.98333963,.0003625,70.0018,48.2519,268.4672,91.6072,0,U,63938,999,5999,.21694E-3,.2497E-4,0
STARLINK-34020,2025-098P,2026-06-07T09:44:30.625728,14.98328254,.0002503,70.0027,48.1479,264.2472,95.8401,0,U,63939,999,5999,.15062E-3,.1705E-4,0
STARLINK-34021,2025-098Q,2026-06-06T10:54:36.778176,14.98330750,.00027834,70.0014,50.8419,263.0515,97.0327,0,U,63940,999,5984,.26584323E-3,.308E-4,0
STARLINK-34004,2025-098R,2026-06-07T09:56:31.845408,14.98331344,.000257,70.0020,48.1684,268.3459,91.7405,0,U,63941,999,5999,.21133E-3,.243E-4,0
