STARLINK-34083          
1 63908U 25095U   26158.33122027  .00019299  00000+0  70860-3 0  9992
2 63908  42.9943  30.2904 0001885 279.5007  80.5631 15.27598441 61487
STARLINK-34066          
1 63909U 25095V   26156.81320835  .00017625  00000+0  64854-3 0  9998
2 63909  42.9975  38.6728 0001001 233.1554 126.9206 15.27576656 61254
STARLINK-34071          
1 63910U 25095W   26156.16577603  .00033122  00000+0  12063-2 0  9999
2 63910  42.9992  42.4143 0001379 280.6836  79.3861 15.27619081 61154
STARLINK-34038          
1 63911U 25095X   26157.78629459  .00025958  00000+0  94998-3 0  9992
2 63911  43.0027  33.0752 0001531 295.0687  65.0006 15.27563105 61408
STARLINK-34031          
1 63912U 25095Y   26155.56700845  .00028634  00000+0  10432-2 0  9990
2 63912  43.0012  45.6597 0002304 260.0131 100.0461 15.27668566 61068
STARLINK-34070          
1 63913U 25095Z   26158.37091014  .00020130  00000+0  73870-3 0  9993
2 63913  43.0019  29.7204 0001085 286.0723  74.0009 15.27595363 61493
STARLINK-34068          
1 63914U 25095AA  26158.36061544  .00017441  00000+0  64142-3 0  9991
2 63914  43.0034  29.6427 0004872 268.3717  91.6577 15.27593481 61494
STARLINK-34076          
1 63915U 25095AB  26158.36706027  .00022876  00000+0  83863-3 0  9993
2 63915  43.0057  29.6902 0000394 256.2377 103.8431 15.27565546 61497
STARLINK-33910          
1 63916U 25095AC  26157.36440523  .00033666  00000+0  12249-2 0  9997
2 63916  43.0015  35.0654 0001222 286.4140  73.6577 15.27645233 61342
STARLINK-34075          
1 63917U 25095AD  26158.35678406  .00018200  00000+0  66826-3 0  9999
2 63917  43.0007  29.6077 0001861  14.5203 345.5702 15.27629229 61495
YAOGAN-40 02A           
1 63918U 25096A   26158.50471148  .00000127  00000+0  58575-4 0  9994
2 63918  85.9957 192.3064 0002621  97.0549 263.0932 14.12446117 55200
YAOGAN-40 02B           
1 63919U 25096B   26158.50486355  .00000170  00000+0  81966-4 0  9999
2 63919  85.9954 192.2769 0002177 100.8624 259.2804 14.12445729 55205
YAOGAN-40 02C           
1 63920U 25096C   26158.50478527  .00000171  00000+0  82403-4 0  9991
2 63920  85.9959 191.5529 0002523  94.5426 265.6045 14.12445384 74040
TJS-19                  
1 63924U 25097A   26158.77620965 -.00000264  00000+0  00000+0 0  9992
2 63924   3.3030 317.2737 0002038 234.6960 124.9234  1.00269548  4046
STARLINK-34012          
1 63926U 25098A   26157.97600536  .00012423  00000+0  10465-2 0  9996
2 63926  70.0015  49.4616 0003373 267.3994  92.6779 14.98351658 59966
STARLINK-33956          
1 63927U 25098B   26158.39738998  .00002373  00000+0  20659-3 0  9998
2 63927  70.0014  48.1166 0002849 271.1456  88.9377 14.98337429 60004
STARLINK-33997          
1 63928U 25098C   26158.12204851  .00009947  00000+0  83996-3 0  9993
2 63928  70.0016  49.1602 0003120 270.4208  89.6593 14.98342837 59963
STARLINK-33989          
1 63929U 25098D   26158.43095405  .00002216  00000+0  19341-3 0  9996
2 63929  70.0012  48.2371 0002826 268.0350  92.0485 14.98332599 60016
STARLINK-33980          
1 63930U 25098E   26157.45025790  .00002930  00000+0  25319-3 0  9994
2 63930  70.0017  50.8364 0002829 270.3416  89.7419 14.98336452 59869
STARLINK-33994          
1 63931U 25098F   26158.42677697  .00000572  00000+0  55725-4 0  9997
2 63931  70.0012  48.2228 0002840 268.7078  91.3756 14.98323662 60014
STARLINK-33971          
1 63932U 25098G   26157.98032997  .00002769  00000+0  23973-3 0  9995
2 63932  70.0013  49.4758 0002939 269.5745  90.5078 14.98334225 59941
STARLINK-33877          
1 63933U 25098H   26158.13452802  .00003692  00000+0  31710-3 0  9999
2 63933  70.0007  48.7992 0002628 256.5599 103.5267 14.98328794 59977
STARLINK-33895          
1 63934U 25098J   26158.41008112  .00002304  00000+0  20084-3 0  9993
2 63934  70.0021  48.1625 0002608 268.0393  92.0467 14.98333651 60018
STARLINK-34005          
1 63935U 25098K   26157.45042202  .00004036  00000+0  34576-3 0  9990
2 63935  70.0013  50.8277 0002980 266.3807  93.7011 14.98340155 59857
STARLINK-34027          
1 63936U 25098L   26158.39338450  .00005736  00000+0  48810-3 0  9992
2 63936  70.0018  48.1011 0002985 269.0477  91.0340 14.98330604 59996
STARLINK-34035          
1 63937U 25098M   26158.42260216  .00001669  00000+0  14756-3 0  9994
2 63937  70.0017  48.2056 0003014 264.7379  95.3437 14.98341547 59995
STARLINK-33988          
1 63938U 25098N   26158.43496008  .00002497  00000+0  21694-3 0  9995
2 63938  70.0018  48.2519 0003625 268.4672  91.6072 14.98333963 59993
STARLINK-34020          
1 63939U 25098P   26158.40591002  .00001705  00000+0  15062-3 0  9996
2 63939  70.0027  48.1479 0002503 264.2472  95.8401 14.98328254 59993
STARLINK-34021          
1 63940U 25098Q   26157.45459234  .00003080  00000+0  26584-3 0  9991
2 63940  70.0014  50.8419 0002783 263.0515  97.0327 14.98330750 59849
STARLINK-34004          
1 63941U 25098R   26158.41425747  .00002430  00000+0  21133-3 0  9994
2 63941  70.0020  48.1684 0002570 268.3459  91.7405 14.98331344 59994
